ZHUHAI-1 02 (CAS-4B)    
1 42759U 17034B   23156.93221704  .00007051  00000+0  35886-3 0  9992
2 42759  43.0137 178.2472 0010183  22.6234 337.5062 15.17243729329922
ZHUHAI-1 01 (CAS-4A)    
1 42761U 17034D   23156.75085840  .00006506  00000+0  33200-3 0  9996
2 42761  43.0129 177.7865 0010902  23.3327 336.8014 15.17246909329894
MAX VALIER SAT          
1 42778U 17036P   23156.65501289  .00021072  00000+0  55829-3 0  9991
2 42778  97.1552 191.7750 0010336 135.6165 224.5911 15.38314811330958
RADFXSAT (FOX-1B)       
1 43017U 17073E   23156.73942939  .00006564  00000+0  45753-3 0  9993
2 43017  97.6320  41.5317 0235490 106.9891 255.7276 14.85913617299483
FOX-1D (AO-92)          
1 43137U 18004AC  23156.67519177  .00030404  00000+0  63893-3 0  9993
2 43137  97.3289 235.7483 0006671 170.2969 189.8410 15.45262847300530
DIWATA-2B               
1 43678U 18084H   23156.86539114  .00001476  00000+0  14624-3 0  9990
2 43678  98.0215 300.6079 0009292 191.2460 168.8553 14.93389992250577
ES'HAIL 2               
1 43700U 18090A   23156.89785154  .00000154  00000+0  00000+0 0  9994
2 43700   0.0202 356.9799 0001886 110.3369 135.7541  1.00270297 16577
FOX-1CLIFF (AO-95)      
1 43770U 18099N   23156.74994653  .00004218  00000+0  34571-3 0  9999
2 43770  97.5723 218.5992 0012504 169.4512 190.6976 14.99727909245895
ITASAT 1                
1 43786U 18099AE  23156.74972029  .00003420  00000+0  28344-3 0  9994
2 43786  97.5766 219.6316 0013484 156.7349 203.4487 14.99422630245934
JY1SAT (JO-97)          
1 43803U 18099AX  23156.91421100  .00005914  00000+0  47033-3 0  9998
2 43803  97.5692 219.7714 0014112 128.5965 231.6525 15.00709408246004
UWE-4                   
1 43880U 18111E   23156.69945516  .00005278  00000+0  40550-3 0  9995
2 43880  97.6319  62.0613 0017289 209.5157 150.5094 15.02048173242647
NEXUS (FO-99)           
1 43937U 19003F   23156.56165466  .00049790  00000+0  83288-3 0  9995
2 43937  97.0854 183.9224 0009462 322.6694  37.3901 15.51694464244247
JAISAT-1                
1 44419U 19038F   23156.91201342  .00023077  00000+0  79909-3 0  9997
2 44419  97.6733 138.2626 0013727 351.9066   8.1950 15.29777728216813
DUCHIFAT-3              
1 44854U 19089C   23156.40647362  .00006097  00000+0  41427-3 0  9993
2 44854  36.9604 161.6834 0010121 224.9035 135.0890 15.06063241191122
CAS-6 (TIANQIN 1)       
1 44881U 19093C   23156.89031543  .00001006  00000+0  13160-3 0  9997
2 44881  97.8617 235.5335 0016111 113.2856 247.0055 14.82512025187129
RS-44 & BREEZE-KM R/B   
1 44909U 19096E   23156.88598089  .00000004  00000+0 -24968-4 0  9990
2 44909  82.5220 355.4571 0216834 213.1612 145.5742 12.79720932160712
BY70-2                  
1 45857U 20042B   23156.93002700  .00016739  00000+0  17350-2 0  9998
2 45857  97.9257 236.7926 0008896  54.9421 305.2630 14.90050560157867
SALSAT                  
1 46495U 20068K   23156.83816145  .00003744  00000+0  24936-3 0  9991
2 46495  97.7702 104.7227 0016423 152.3527 207.8577 15.07632228147369
RADFXSAT-2 (AO-109)     
1 47311U 21002C   23156.28676281  .00022777  00000+0  60124-3 0  9998
2 47311  60.6809 104.2687 0014102 170.2684 189.8686 15.38377572132450
UVSQ-SAT                
1 47438U 21006AB  23156.73950994  .00014280  00000+0  58994-3 0  9990
2 47438  97.3844 214.0130 0011579 120.8234 239.4145 15.24050571130908
DIY-1 (ARDUIQUBE)       
1 47963U 21022AH  23156.70701295  .00183901  00000+0  24671-2 0  9997
2 47963  97.4965  64.7133 0004189  58.9532 301.2134 15.57308057120805
XW-3 (CAS-9)            
1 50466U 21131B   23156.90478456  .00000546  00000+0  19179-3 0  9993
2 50466  98.5518 238.4846 0004752 159.2020 200.9361 14.38907539 75733
TEVEL-3                 
1 50988U 22002E   23156.82670371  .00017688  00000+0  71749-3 0  9997
2 50988  97.4334 223.8725 0006267 268.0624  91.9896 15.24663736 77032
TEVEL-8                 
1 50989U 22002F   23156.84496120  .00017945  00000+0  72924-3 0  9990
2 50989  97.4352 223.9485 0006276 266.7336  93.3184 15.24599130 77034
TEVEL-5                 
1 50998U 22002Q   23156.84298559  .00018359  00000+0  72666-3 0  9999
2 50998  97.4329 224.2590 0007499 261.9286  98.1101 15.25470391 77061
TEVEL-6                 
1 50999U 22002R   23156.84150905  .00018210  00000+0  72080-3 0  9998
2 50999  97.4327 224.2523 0007513 261.6804  98.3582 15.25470192 77060
TEVEL-1                 
1 51013U 22002AF  23156.83616492  .00017441  00000+0  70849-3 0  9999
2 51013  97.4329 223.8265 0006168 267.2370  92.8161 15.24618649 77032
TEVEL-7                 
1 51062U 22002CG  23156.84608801  .00017844  00000+0  72480-3 0  9999
2 51062  97.4347 223.9231 0006276 265.9560  94.0960 15.24615526 77038
TEVEL-4                 
1 51063U 22002CH  23156.85178725  .00017771  00000+0  72295-3 0  9991
2 51063  97.4348 223.9134 0006276 265.9768  94.0752 15.24565281 77033
TEVEL-2                 
1 51069U 22002CP  23156.82854817  .00017432  00000+0  70716-3 0  9997
2 51069  97.4331 223.8462 0006239 267.5644  92.4879 15.24664993 77036
GREENCUBE               
1 53106U 22080B   23156.84588440 -.00000003  00000+0  00000+0 0  9997
2 53106  70.1624 323.6621 0008403 187.6285 172.4247  6.42557080 21021
RS29S (SXC3-2110 CYCLO*)
1 53373U 22096D   23156.82199938  .00029671  00000+0  78620-3 0  9996
2 53373  97.4149  62.9925 0002703 113.8723 246.2805 15.38297799 45946
RS32S (SXC3-212 MONITO*)
1 53374U 22096E   23156.78497241  .00025095  00000+0  68339-3 0  9992
2 53374  97.4128  62.8515 0003086 120.7383 239.4166 15.37483519 45931
RS34S (SXC3-218 KUZBAS*)
1 53375U 22096F   23156.79193480  .00021795  00000+0  63032-3 0  9990
2 53375  97.4153  62.5787 0003010 117.8766 242.2783 15.35633004 45916
RS23S (SXC3-21 UTMN)    
1 53376U 22096G   23156.81830451  .00023556  00000+0  66982-3 0  9994
2 53376  97.4150  62.6896 0002767 114.8290 245.3242 15.36148904 45929
RS28S (SXC3-214 MIET-A*)
1 53377U 22096H   23156.79872290  .00019395  00000+0  56811-3 0  9995
2 53377  97.4161  62.5763 0002909 118.5535 241.6001 15.35256795 45913
RS26S (KAI-1)           
1 53378U 22096J   23156.82714080  .00017317  00000+0  53024-3 0  9997
2 53378  97.4175  62.3996 0002901 115.4224 244.7319 15.33877806 45903
RS19S (SXC3-219 ISOI)   
1 53381U 22096M   23156.81759833  .00022017  00000+0  62812-3 0  9993
2 53381  97.4150  62.8386 0005651  99.3329 260.8554 15.36048518 45935
RS21S (CUBESX-HSE-2)    
1 53383U 22096P   23156.79355922  .00021494  00000+0  60520-3 0  9995
2 53383  97.4153  62.8816 0006188  99.7644 260.4299 15.36460440 45932
RS30S (SXC3-217 SIREN)  
1 53384U 22096Q   23156.81428583  .00019366  00000+0  57137-3 0  9998
2 53384  97.4166  62.7132 0006136  96.8784 263.3157 15.35016097 45921
RS20S (GEOSCAN-EDELVEIS)
1 53385U 22096R   23156.79990389  .00030488  00000+0  76816-3 0  9997
2 53385  97.4143  63.4622 0006458  98.5139 261.6839 15.39822217 46000
RS33S (SXC3-215 VIZARD) 
1 53386U 22096S   23156.80582765  .00039915  00000+0  89512-3 0  9996
2 53386  97.4141  64.0607 0007150  98.0571 262.1488 15.43277375 46037
CAS-5A (FO-118)         
1 54684U 22167C   23156.83986055  .00010559  00000+0  58722-3 0  9992
2 54684  97.5619 294.4979 0013536  20.2166 339.9598 15.13778973 26965
